[
    {
        "Altitude(m)": 571549.2888606956,
        "Argument of Periapsis(deg)": 0.0,
        "Eccentricity": 0.0,
        "Inclination(deg)": 53.0,
        "Latitude(deg)": -52.388146109907886,
        "Longitude(deg)": 168.4368498669674,
        "Mean Anomaly(deg)": -81.8182,
        "RAAN(deg)": 345.0,
        "Satellite Name": "Starlink Shell 1 1535",
        "Satellite Number": 1535,
        "Semi-Major Axis(m)": 6931778.249405717,
        "Time(s)": 0
    },
    {
        "Altitude(m)": 571502.6344160856,
        "Argument of Periapsis(deg)": 0.00034857847951123687,
        "Eccentricity": 0.0,
        "Inclination(deg)": 53.0,
        "Latitude(deg)": -52.26819667429709,
        "Longitude(deg)": 169.39601373061447,
        "Mean Anomaly(deg)": -81.19136879644331,
        "RAAN(deg)": 344.99948122992254,
        "Satellite Name": "Starlink Shell 1 1535",
        "Satellite Number": 1535,
        "Semi-Major Axis(m)": 6931778.249405717,
        "Time(s)": 10
    },
    {
        "Altitude(m)": 571452.6350703763,
        "Argument of Periapsis(deg)": 0.0006971569590224737,
        "Eccentricity": 0.0,
        "Inclination(deg)": 53.0,
        "Latitude(deg)": -52.13981806973321,
        "Longitude(deg)": 170.34961364607457,
        "Mean Anomaly(deg)": -80.56453759288651,
        "RAAN(deg)": 344.9989624598451,
        "Satellite Name": "Starlink Shell 1 1535",
        "Satellite Number": 1535,
        "Semi-Major Axis(m)": 6931778.249405717,
        "Time(s)": 20
    },
    {
        "Altitude(m)": 571399.3107389397,
        "Argument of Periapsis(deg)": 0.0010457354385337105,
        "Eccentricity": 0.0,
        "Inclination(deg)": 53.0,
        "Latitude(deg)": -52.003096455423986,
        "Longitude(deg)": 171.29733512224752,
        "Mean Anomaly(deg)": -79.93770638932982,
        "RAAN(deg)": 344.9984436897676,
        "Satellite Name": "Starlink Shell 1 1535",
        "Satellite Number": 1535,
        "Semi-Major Axis(m)": 6931778.249405717,
        "Time(s)": 30
    },
    {
        "Altitude(m)": 571342.6826593278,
        "Argument of Periapsis(deg)": 0.0013943139180449475,
        "Eccentricity": 0.0,
        "Inclination(deg)": 53.0,
        "Latitude(deg)": -51.858122324133745,
        "Longitude(deg)": 172.23887911175552,
        "Mean Anomaly(deg)": -79.31087518577317,
        "RAAN(deg)": 344.9979249196901,
        "Satellite Name": "Starlink Shell 1 1535",
        "Satellite Number": 1535,
        "Semi-Major Axis(m)": 6931778.249405717,
        "Time(s)": 40
    },
    {
        "Altitude(m)": 571282.7733820708,
        "Argument of Periapsis(deg)": 0.0017428923975561844,
        "Eccentricity": 0.0,
        "Inclination(deg)": 53.0,
        "Latitude(deg)": -51.704990230137696,
        "Longitude(deg)": 173.17396141773224,
        "Mean Anomaly(deg)": -78.68404398221642,
        "RAAN(deg)": 344.99740614961263,
        "Satellite Name": "Starlink Shell 1 1535",
        "Satellite Number": 1535,
        "Semi-Major Axis(m)": 6931778.249405717,
        "Time(s)": 50
    },
    {
        "Altitude(m)": 571219.6067609076,
        "Argument of Periapsis(deg)": 0.002091470877067421,
        "Eccentricity": 0.0,
        "Inclination(deg)": 53.0,
        "Latitude(deg)": -51.54379851240333,
        "Longitude(deg)": 174.1023135287681,
        "Mean Anomaly(deg)": -78.05721277865973,
        "RAAN(deg)": 344.9968873795352,
        "Satellite Name": "Starlink Shell 1 1535",
        "Satellite Number": 1535,
        "Semi-Major Axis(m)": 6931778.249405717,
        "Time(s)": 60
    },
    {
        "Altitude(m)": 571153.207942455,
        "Argument of Periapsis(deg)": 0.0024400493565786582,
        "Eccentricity": 0.0,
        "Inclination(deg)": 53.0,
        "Latitude(deg)": -51.374649014681424,
        "Longitude(deg)": 175.0236833707825,
        "Mean Anomaly(deg)": -77.43038157510298,
        "RAAN(deg)": 344.9963686094577,
        "Satellite Name": "Starlink Shell 1 1535",
        "Satellite Number": 1535,
        "Semi-Major Axis(m)": 6931778.249405717,
        "Time(s)": 70
    },
    {
        "Altitude(m)": 571083.6033553017,
        "Argument of Periapsis(deg)": 0.002788627836089895,
        "Eccentricity": 0.0,
        "Inclination(deg)": 53.0,
        "Latitude(deg)": -51.197646804141165,
        "Longitude(deg)": 175.93783446519825,
        "Mean Anomaly(deg)": -76.80355037154634,
        "RAAN(deg)": 344.99584983938024,
        "Satellite Name": "Starlink Shell 1 1535",
        "Satellite Number": 1535,
        "Semi-Major Axis(m)": 6931778.249405717,
        "Time(s)": 80
    },
    {
        "Altitude(m)": 571010.820698543,
        "Argument of Periapsis(deg)": 0.0031372063156011316,
        "Eccentricity": 0.0,
        "Inclination(deg)": 53.0,
        "Latitude(deg)": -51.01289989011619,
        "Longitude(deg)": 176.84454652204224,
        "Mean Anomaly(deg)": -76.17671916798959,
        "RAAN(deg)": 344.9953310693028,
        "Satellite Name": "Starlink Shell 1 1535",
        "Satellite Number": 1535,
        "Semi-Major Axis(m)": 6931778.249405717,
        "Time(s)": 90
    },
    {
        "Altitude(m)": 570934.8889297856,
        "Argument of Periapsis(deg)": 0.0034857847951123688,
        "Eccentricity": 0.0,
        "Inclination(deg)": 53.0,
        "Latitude(deg)": -50.82051894443669,
        "Longitude(deg)": 177.74361595851968,
        "Mean Anomaly(deg)": -75.5498879644328,
        "RAAN(deg)": 344.99481229922526,
        "Satellite Name": "Starlink Shell 1 1535",
        "Satellite Number": 1535,
        "Semi-Major Axis(m)": 6931778.249405717,
        "Time(s)": 100
    },
    {
        "Altitude(m)": 570855.8382525416,
        "Argument of Periapsis(deg)": 0.003834363274623606,
        "Eccentricity": 0.0,
        "Inclination(deg)": 53.0,
        "Latitude(deg)": -50.6206170247262,
        "Longitude(deg)": 178.63485483408434,
        "Mean Anomaly(deg)": -74.92305676087615,
        "RAAN(deg)": 344.99429352914785,
        "Satellite Name": "Starlink Shell 1 1535",
        "Satellite Number": 1535,
        "Semi-Major Axis(m)": 6931778.249405717,
        "Time(s)": 110
    },
    {
        "Altitude(m)": 570773.7001031513,
        "Argument of Periapsis(deg)": 0.004182941754134842,
        "Eccentricity": 0.0,
        "Inclination(deg)": 53.0,
        "Latitude(deg)": -50.41330930194618,
        "Longitude(deg)": 179.51809123203353,
        "Mean Anomaly(deg)": -74.2962255573194,
        "RAAN(deg)": 344.99377475907033,
        "Satellite Name": "Starlink Shell 1 1535",
        "Satellite Number": 1535,
        "Semi-Major Axis(m)": 6931778.249405717,
        "Time(s)": 120
    },
    {
        "Altitude(m)": 570688.5071371244,
        "Argument of Periapsis(deg)": 0.004531520233646079,
        "Eccentricity": 0.0,
        "Inclination(deg)": 53.0,
        "Latitude(deg)": -50.198712793356094,
        "Longitude(deg)": -179.60683042065372,
        "Mean Anomaly(deg)": -73.66939435376271,
        "RAAN(deg)": 344.99325598899287,
        "Satellite Name": "Starlink Shell 1 1535",
        "Satellite Number": 1535,
        "Semi-Major Axis(m)": 6931778.249405717,
        "Time(s)": 130
    },
    {
        "Altitude(m)": 570600.2932149243,
        "Argument of Periapsis(deg)": 0.0048800987131573164,
        "Eccentricity": 0.0,
        "Inclination(deg)": 53.0,
        "Latitude(deg)": -49.97694610193973,
        "Longitude(deg)": -178.74005060327733,
        "Mean Anomaly(deg)": -73.04256315020601,
        "RAAN(deg)": 344.9927372189154,
        "Satellite Name": "Starlink Shell 1 1535",
        "Satellite Number": 1535,
        "Semi-Major Axis(m)": 6931778.249405717,
        "Time(s)": 140
    },
    {
        "Altitude(m)": 570509.0933872745,
        "Argument of Periapsis(deg)": 0.005228677192668553,
        "Eccentricity": 0.0,
        "Inclination(deg)": 53.0,
        "Latitude(deg)": -49.74812916324511,
        "Longitude(deg)": -177.8816944904478,
        "Mean Anomaly(deg)": -72.41573194664932,
        "RAAN(deg)": 344.99221844883795,
        "Satellite Name": "Starlink Shell 1 1535",
        "Satellite Number": 1535,
        "Semi-Major Axis(m)": 6931778.249405717,
        "Time(s)": 150
    },
    {
        "Altitude(m)": 570414.9438799144,
        "Argument of Periapsis(deg)": 0.00557725567217979,
        "Eccentricity": 0.0,
        "Inclination(deg)": 53.0,
        "Latitude(deg)": -49.51238300045771,
        "Longitude(deg)": -177.03187178798336,
        "Mean Anomaly(deg)": -71.78890074309263,
        "RAAN(deg)": 344.9916996787604,
        "Satellite Name": "Starlink Shell 1 1535",
        "Satellite Number": 1535,
        "Semi-Major Axis(m)": 6931778.249405717,
        "Time(s)": 160
    },
    {
        "Altitude(m)": 570317.8820778156,
        "Argument of Periapsis(deg)": 0.0059258341516910265,
        "Eccentricity": 0.0,
        "Inclination(deg)": 53.0,
        "Latitude(deg)": -49.26982948841414,
        "Longitude(deg)": -176.19067812344935,
        "Mean Anomaly(deg)": -71.16206953953584,
        "RAAN(deg)": 344.99118090868296,
        "Satellite Name": "Starlink Shell 1 1535",
        "Satellite Number": 1535,
        "Semi-Major Axis(m)": 6931778.249405717,
        "Time(s)": 170
    },
    {
        "Altitude(m)": 570217.9465089298,
        "Argument of Periapsis(deg)": 0.006274412631202263,
        "Eccentricity": 0.0,
        "Inclination(deg)": 53.0,
        "Latitude(deg)": -49.02059112715716,
        "Longitude(deg)": -175.35819496052898,
        "Mean Anomaly(deg)": -70.53523833597913,
        "RAAN(deg)": 344.9906621386055,
        "Satellite Name": "Starlink Shell 1 1535",
        "Satellite Number": 1535,
        "Semi-Major Axis(m)": 6931778.249405717,
        "Time(s)": 180
    }
]